id,name,street,city,state,zip,enabled,contact
1,"Hickle, Bernier and Bergnaum",2469 Victoria Parkway,High Point,NC,27264,false,Stephenie Berringer
2,Kulas-Hills,62802 Boyd Avenue,Springfield,IL,62718,true,Torey Haestier
3,"Lehner, Larkin and Gislason",1077 Hazelcrest Point,Tulsa,OK,74184,true,Emmy Caslane
4,"Kunde, Kunze and Kautzer",281 Canary Way,Toledo,OH,43605,false,Maura O' Neligan
5,Balistreri-Gaylord,454 Manitowish Way,Homestead,FL,33034,true,Bethanne Allworthy
6,Frami-Littel,6 1st Circle,Newark,NJ,07112,false,Kerstin Jerg
7,"Corkery, Robel and Wilderman",76 Graceland Drive,Abilene,TX,79699,false,Theresita Illsley
8,Prohaska and Sons,88902 Mandrake Court,Greenville,SC,29605,false,Teodor Bonney
9,Deckow Inc,12 Comanche Parkway,Saint Louis,MO,63167,false,Jemmie Smallridge
10,Mitchell-Hartmann,7744 Thackeray Alley,Lake Worth,FL,33462,false,Saunder Dows
11,Hudson-McGlynn,1845 Loftsgordon Center,Cleveland,OH,44105,true,Gabie Whartonby
12,"Abshire, Vandervort and Treutel",1 Nelson Plaza,Springfield,MO,65810,false,Honoria Muckeen
13,Runolfsson-Schoen,8 Butternut Junction,Lexington,KY,40524,true,Harman Saing
14,Spinka-Wiza,2 Maryland Park,New York City,NY,10249,false,Charmian Lathey
15,"Schamberger, Strosin and Padberg",2 Annamark Drive,Tucson,AZ,85754,false,Shaine Kitlee
16,Haley LLC,42 Muir Plaza,Pittsburgh,PA,15210,false,Tallie Tolefree
17,Hamill Inc,4123 Tennyson Terrace,San Antonio,TX,78255,true,Ravi Evison
18,"Wisoky, Graham and Zemlak",1754 2nd Court,Cincinnati,OH,45208,true,Jania Skillings
19,"Runolfsson, Brown and McDermott",89 Porter Avenue,Sacramento,CA,94286,false,Paxon Littrick
20,Wolf and Sons,24500 Monica Street,Denver,CO,80217,false,Nara Boucher
21,"Barton, Rippin and Shields",8 Muir Road,Buffalo,NY,14210,false,Jarad Heineke
22,Luettgen-Luettgen,777 Scoville Hill,Louisville,KY,40293,true,Humberto Chinnock
23,Moore-Mitchell,369 Texas Lane,Wichita,KS,67210,true,Yehudi Lanfare
24,"Schowalter, Eichmann and Lockman",5 Esker Place,Saint Louis,MO,63126,true,Mallorie Lamputt
25,"Trantow, Harris and Eichmann",2 American Ash Park,Columbus,OH,43284,false,Josselyn Freer
26,Kiehn and Sons,58 Maple Circle,Providence,RI,02912,true,Sara Flacknell
27,Kris-Durgan,968 Holmberg Drive,Knoxville,TN,37931,false,Burty Habden
28,"Hilll, Fahey and Johnson",17608 Alpine Plaza,Washington,DC,20041,true,Pip Shernock
29,Lesch-Mann,01 Fisk Place,Tulsa,OK,74103,false,Milton Gopsall
30,Larkin-Mraz,9616 Melvin Hill,Baltimore,MD,21275,true,Alard Linfoot
31,O'Keefe LLC,64 Raven Terrace,Birmingham,AL,35210,false,Rudie Churm
32,Aufderhar Group,4651 Muir Circle,Oakland,CA,94627,true,Augusto Dumbleton
33,Mraz Group,46640 Summit Court,North Little Rock,AR,72199,false,Kalie McMonies
34,Yost and Sons,20592 Little Fleur Hill,Miami,FL,33196,true,Domini Punyer
35,Purdy and Sons,092 Forest Run Point,Mobile,AL,36622,false,Aloise Linham
36,Marquardt and Sons,9 Dakota Park,Houston,TX,77080,true,Bentlee Gooddie
37,"Gerhold, Olson and Christiansen",70188 Schlimgen Street,Madison,WI,53710,false,Alvera Demcik
38,"Berge, Pacocha and Jacobson",6723 6th Parkway,Sacramento,CA,95894,false,Caddric McJerrow
39,Heidenreich-Streich,34 Bartelt Center,Olympia,WA,98516,true,Cybil Pinson
40,Swift-Graham,94737 Calypso Junction,Salt Lake City,UT,84140,true,Muriel Simper
41,"Kuphal, Rippin and Glover",462 Pierstorff Place,Jacksonville,FL,32277,false,Jasmine Sebley
42,Mertz-Blanda,699 Commercial Plaza,Longview,TX,75605,true,Elwira Cameron
43,Hirthe Group,11 Derek Plaza,Bowie,MD,20719,false,Corbie Semens
44,Bernhard and Sons,8883 Crescent Oaks Lane,Jacksonville,FL,32277,false,Irvin Jerson
45,Haley Group,658 Esch Street,Tampa,FL,33680,true,Emmeline Hankinson
46,Konopelski-Larkin,705 Kings Park,Jacksonville,FL,32230,false,Candida Walkinshaw
47,"Kris, Koepp and Feil",12330 Delaware Junction,Farmington,MI,48335,false,Korey Cordelle
48,"Gulgowski, Hauck and Donnelly",6 Doe Crossing Plaza,Canton,OH,44760,true,Brandi Smaridge
49,"Crona, Schinner and Fritsch",85148 Di Loreto Road,Charlottesville,VA,22903,false,Elvis McLachlan
50,"Reilly, Swaniawski and Paucek",47 Melby Hill,Houston,TX,77060,false,Toddie Palethorpe
51,"Bashirian, Zboncak and Stark",09488 Haas Court,Grand Forks,ND,58207,true,Herminia Andress
52,"Klein, O'Reilly and Beatty",11804 Pine View Point,Dayton,OH,45490,true,Robinson Guidetti
53,"Pagac, Leffler and Carter",676 Johnson Crossing,New York City,NY,10175,false,Randell Kempston
54,Schulist and Sons,18070 Montana Street,Evansville,IN,47737,true,Barri Muzzollo
55,Heidenreich LLC,9 Anhalt Road,Dallas,TX,75226,true,Brandtr Fearick
56,Klocko and Sons,4935 Morning Circle,Gadsden,AL,35905,false,Nannette Shrigley
57,Kuhn-Farrell,72 Spohn Junction,Madison,WI,53716,false,Theresina Kydd
58,Bayer and Sons,0545 Westridge Street,Metairie,LA,70005,false,Theodosia Izaks
59,Leffler and Sons,46380 Emmet Center,Huntington,WV,25709,false,Melina Sirmon
60,"Anderson, Mohr and Kiehn",0 Prairieview Way,Colorado Springs,CO,80935,true,Dayna Eversley
61,Hammes-Kerluke,29 Jackson Crossing,Pompano Beach,FL,33064,false,Sheena Swaffer
62,Ziemann-Anderson,2 Swallow Road,Littleton,CO,80127,false,Teriann Walpole
63,Larson Inc,681 Scofield Lane,Bronx,NY,10469,false,Wynn Hains
64,Cruickshank-O'Reilly,3 Lerdahl Road,El Paso,TX,88514,true,Kit Tate
65,Rempel and Sons,517 Ruskin Alley,Birmingham,AL,35242,false,Petronille Creaney
66,Kuphal-Gaylord,08 Londonderry Circle,Athens,GA,30605,true,Averell Grogono
67,"Barrows, Torphy and Nikolaus",46654 Crescent Oaks Center,Syracuse,NY,13210,false,Boigie Heliet
68,"Brakus, Turcotte and Hegmann",02 Debra Pass,Boston,MA,02163,false,Grace Woodwind
69,King-Kris,6 Packers Way,Minneapolis,MN,55412,true,Emma Kinton
70,Bailey-Turner,99422 Calypso Drive,Washington,DC,20226,true,Sheryl Mattessen
71,"Heidenreich, Toy and Bogan",05453 Spaight Way,North Las Vegas,NV,89036,false,Annaliese Ravenscroft
72,Kessler Inc,66765 Farragut Junction,Orlando,FL,32830,true,Kary Haythorne
73,"Bednar, Leffler and Mertz",08218 8th Alley,Washington,DC,20456,false,Ginelle Le Page
74,Funk-Green,1 Bunting Circle,Portsmouth,NH,03804,false,Kitty Duddan
75,Schmeler-Graham,557 Johnson Court,Harrisburg,PA,17126,false,Fran Patsall
76,Glover Group,0679 Mcguire Circle,Clearwater,FL,34620,true,Rutger Byles
77,"Lynch, Schumm and Runolfsdottir",5304 Briar Crest Court,Miami,FL,33111,false,Saundra Maplesden
78,"Blanda, Weissnat and McDermott",919 Clyde Gallagher Court,Wichita,KS,67205,true,Devina Blinckhorne
79,"Hodkiewicz, Doyle and Stehr",97934 Fieldstone Point,Huntington,WV,25705,false,Daryn Cracoe
80,Hegmann-Zemlak,0 Maple Wood Plaza,Minneapolis,MN,55458,false,Briana Poznan
81,Swaniawski Inc,7 Hazelcrest Road,Denver,CO,80241,false,Ario Fishenden
82,Rowe-Strosin,99 Hazelcrest Plaza,Schenectady,NY,12305,false,Ailyn Todaro
83,"Treutel, Kuhic and Turner",053 Hovde Street,Youngstown,OH,44511,true,Casper Groombridge
84,"Hartmann, Breitenberg and Connelly",611 Colorado Park,Oxnard,CA,93034,false,Claudian Schieferstein
85,Sipes Inc,2 Hintze Center,Minneapolis,MN,55458,false,Shanna Hickisson
86,Toy and Sons,10 Ridgeway Center,Greenville,SC,29615,false,Sybilla Paske
87,"Waelchi, Reynolds and Gutmann",9093 Delaware Street,Clearwater,FL,33758,false,George Howat
88,"Boyle, Waters and Feeney",686 Burrows Junction,Gadsden,AL,35905,false,Ira Chalfont
89,Roob-Parker,9 Dapin Way,Carson City,NV,89706,true,Alfie Arangy
90,Mosciski LLC,22 Northridge Street,Dayton,OH,45440,false,Burke Catlow
91,"Shanahan, Kihn and Wisoky",59867 Declaration Terrace,Tucson,AZ,85737,true,Kesley Cabrales
92,Hegmann LLC,7896 Hollow Ridge Street,Washington,DC,20226,true,Titus Spillman
93,"Donnelly, Gerlach and Ward",6 Oak Junction,Syracuse,NY,13217,false,Damaris Emberson
94,"Bailey, Mante and Kerluke",93768 Summerview Point,Los Angeles,CA,90065,false,Wilden Darrell
95,"Langosh, Wiza and Wolff",8729 Westport Trail,Jacksonville,FL,32255,false,Kameko Braunthal
96,Welch-Hagenes,98 Bunker Hill Court,Las Vegas,NV,89110,false,Wendeline De Fraine
97,"Nolan, Lehner and Hettinger",11 Kings Alley,Philadelphia,PA,19104,false,Quint Dany
98,Kihn Inc,7325 Dunning Avenue,Chicago,IL,60681,false,Caroline Eddington
99,"Morar, Beahan and Spencer",0955 Paget Way,Washington,DC,20099,true,Tybalt Beverley
100,Gusikowski-Romaguera,53 Dovetail Park,Atlanta,GA,31119,true,Traci Partridge
